OBJECT_NAME,OBJECT_ID,EPOCH,MEAN_MOTION,ECCENTRICITY,INCLINATION,RA_OF_ASC_NODE,ARG_OF_PERICENTER,MEAN_ANOMALY,EPHEMERIS_TYPE,CLASSIFICATION_TYPE,NORAD_CAT_ID,ELEMENT_SET_NO,REV_AT_EPOCH,BSTAR,MEAN_MOTION_DOT,MEAN_MOTION_DDOT
2023-085AJ,2023-085AJ,2026-05-17T04:03:58.104864,15.21027628,.0007481,97.4843,243.0052,173.4973,186.6361,0,U,57036,999,16161,.15838E-3,.3446E-4,0
2023-085AK,2023-085AK,2026-05-17T05:15:09.440928,15.20376026,.0007084,97.4841,242.9388,191.2613,168.8465,0,U,57037,999,16161,.14216E-3,.3027E-4,0
2023-085AL,2023-085AL,2026-05-17T03:28:55.032096,15.33964866,.0007202,97.4924,249.0701,178.6298,181.4965,0,U,57038,999,16199,.31735E-3,.10357E-3,0
2023-085AS,2023-085AS,2026-05-17T03:38:49.070112,15.35656391,.0007478,97.4896,250.0788,181.7217,178.4002,0,U,57044,999,16208,.32879E-3,.1133E-3,0
NUSANTARA TIGA (SATRIA),2023-086A,2026-05-17T03:04:49.999872,1.00273276,.0004613,0.0397,323.6657,22.9172,80.4769,0,U,57045,999,944,0,-.226E-5,0
SHIYAN-25 (SY-25),2023-087A,2026-05-17T03:51:19.830816,16.00999255,.0009812,96.7863,199.0218,196.7563,163.3395,0,U,57047,999,16983,-.93249E-4,-.50941E-3,.29649E-5
STARLINK-5850,2023-088B,2026-05-17T04:16:42.028608,15.26742628,.0001513,43.0065,84.1567,270.4709,89.5969,0,U,57049,999,16099,.21026E-4,.304E-5,0
STARLINK-5845,2023-088C,2026-05-17T03:34:30.181152,15.27579884,.0000653,43.0019,83.9281,267.4166,92.6610,0,U,57050,999,16080,.34498E-4,.688E-5,0
STARLINK-5839,2023-088D,2026-05-17T04:53:51.692928,15.27574413,.0001044,43.0034,83.4857,252.4245,107.6493,0,U,57051,999,16081,.54976E-4,.1251E-4,0
STARLINK-5860,2023-088E,2026-05-17T03:14:09.229920,15.27576408,.0000924,43.0042,83.8288,252.4160,107.6591,0,U,57052,999,16080,.19343E-4,.27E-5,0
STARLINK-5865,2023-088F,2026-05-16T23:19:47.292096,15.27575528,.0001245,43.0039,85.1826,273.1534,86.9175,0,U,57053,999,16077,-.16053E-8,-.262E-5,0
STARLINK-5881,2023-088G,2026-05-17T04:52:00.255072,15.27579303,.0001053,43.0038,83.4716,267.0108,93.0623,0,U,57054,999,16081,.18363E-4,.243E-5,0
STARLINK-6237,2023-088H,2026-05-17T03:25:14.146176,15.27581791,.0002193,43.0039,83.8804,264.9708,95.0893,0,U,57055,999,16080,-.50775E-4,-.166E-4,0
STARLINK-6353,2023-088J,2026-05-17T04:46:27.151968,15.27572606,.0001513,43.0040,83.4455,259.0821,100.9861,0,U,57056,999,16081,.6439E-4,.151E-4,0
STARLINK-6223,2023-088K,2026-05-17T04:55:41.937600,15.27579060,.0000944,43.0039,83.4660,264.6851,95.3893,0,U,57057,999,16081,.19974E-4,.288E-5,0
STARLINK-6217,2023-088L,2026-05-17T03:06:44.847072,15.27579547,.000123,43.0037,83.7901,256.2878,103.7837,0,U,57058,999,16080,.45809E-4,.999E-5,0
STARLINK-6211,2023-088M,2026-05-17T04:42:44.936352,15.27575984,.0001287,43.0037,83.4154,268.0858,91.9846,0,U,57059,999,16081,.21063E-4,.317E-5,0
STARLINK-6227,2023-088N,2026-05-17T04:31:51.658176,15.27577403,.0001422,43.0061,84.2143,264.1214,95.9475,0,U,57060,999,16080,.33713E-4,.665E-5,0
STARLINK-5869,2023-088P,2026-05-16T22:47:35.960064,15.27604847,.0001178,42.9996,88.4081,299.3256,60.7477,0,U,57061,999,15975,.17985E-3,.4694E-4,0
STARLINK-5536,2023-088Q,2026-05-17T02:34:21.980640,15.27615396,.0001273,43.0049,69.7387,265.3298,94.7408,0,U,57062,999,16096,-.38211E-3,-.10773E-3,0
STARLINK-5832,2023-088R,2026-05-17T03:38:39.306048,15.26737162,.0000881,43.0031,83.9385,257.8815,102.1938,0,U,57063,999,16080,-.39621E-4,-.1322E-4,0
STARLINK-5822,2023-088S,2026-05-17T03:30:47.860128,15.27591517,.0000523,43.0037,83.8984,223.8186,136.2624,0,U,57064,999,15982,.16725E-4,.199E-5,0
STARLINK-5830,2023-088T,2026-05-17T03:46:55.800192,15.26739037,.0001034,43.0024,87.3671,270.0606,90.0126,0,U,57065,999,15978,-.14093E-4,-.638E-5,0
STARLINK-5827,2023-088U,2026-05-17T03:38:12.391584,15.27572385,.0000995,43.0042,83.9391,266.7942,93.2796,0,U,57066,999,15982,.1097E-5,-.232E-5,0
STARLINK-5824,2023-088V,2026-05-16T23:14:13.822656,15.27575814,.0001257,43.0048,85.1350,259.4017,100.6693,0,U,57067,999,16077,.1024E-4,.2E-6,0
STARLINK-5844,2023-088W,2026-05-17T04:05:15.000000,15.27573781,.000099,43.0024,87.4918,260.1027,99.9713,0,U,57068,999,16076,.13091E-4,.98E-6,0
STARLINK-5821,2023-088X,2026-05-16T19:26:08.967264,15.27578116,.00013413,43.0064,71.8313,274.9461,85.1238,0,U,57069,999,16074,.32685944E-4,.637E-5,0
STARLINK-5828,2023-088Y,2026-05-16T23:31:37.812000,15.27579582,.0000706,42.9998,70.5351,249.5172,110.5604,0,U,57070,999,16094,.35041E-4,.703E-5,0
STARLINK-5834,2023-088Z,2026-05-16T20:45:30.076416,15.27580560,.0001494,43.0054,71.3886,280.5242,79.5441,0,U,57071,999,16075,.31848E-4,.614E-5,0
STARLINK-5843,2023-088AA,2026-05-17T04:00:01.998720,15.27560084,.0000959,43.0016,69.5872,269.7822,354.1156,0,U,57072,999,579,.10527E-2,.288E-3,0
