2023-085AJ              
1 57036U 23085AJ  26137.16942251  .00003446  00000+0  15838-3 0  9992
2 57036  97.4843 243.0052 0007481 173.4973 186.6361 15.21027628161618
2023-085AK              
1 57037U 23085AK  26137.21885927  .00003027  00000+0  14216-3 0  9999
2 57037  97.4841 242.9388 0007084 191.2613 168.8465 15.20376026161610
2023-085AL              
1 57038U 23085AL  26137.14508139  .00010357  00000+0  31735-3 0  9998
2 57038  97.4924 249.0701 0007202 178.6298 181.4965 15.33964866161996
2023-085AS              
1 57044U 23085AS  26137.15195683  .00011330  00000+0  32879-3 0  9994
2 57044  97.4896 250.0788 0007478 181.7217 178.4002 15.35656391162081
NUSANTARA TIGA (SATRIA) 
1 57045U 23086A   26137.12835648 -.00000226  00000+0  00000+0 0  9995
2 57045   0.0397 323.6657 0004613  22.9172  80.4769  1.00273276  9440
SHIYAN-25 (SY-25)       
1 57047U 23087A   26137.16064619 -.00050941  29649-5 -93249-4 0  9992
2 57047  96.7863 199.0218 0009812 196.7563 163.3395 16.00999255169834
STARLINK-5850           
1 57049U 23088B   26137.17826422  .00000304  00000+0  21026-4 0  9998
2 57049  43.0065  84.1567 0001513 270.4709  89.5969 15.26742628160999
STARLINK-5845           
1 57050U 23088C   26137.14896043  .00000688  00000+0  34498-4 0  9995
2 57050  43.0019  83.9281 0000653 267.4166  92.6610 15.27579884160808
STARLINK-5839           
1 57051U 23088D   26137.20407052  .00001251  00000+0  54976-4 0  9991
2 57051  43.0034  83.4857 0001044 252.4245 107.6493 15.27574413160817
STARLINK-5860           
1 57052U 23088E   26137.13482905  .00000270  00000+0  19343-4 0  9993
2 57052  43.0042  83.8288 0000924 252.4160 107.6591 15.27576408160805
STARLINK-5865           
1 57053U 23088F   26136.97207514 -.00000262  00000+0 -16053-8 0  9998
2 57053  43.0039  85.1826 0001245 273.1534  86.9175 15.27575528160772
STARLINK-5881           
1 57054U 23088G   26137.20278073  .00000243  00000+0  18363-4 0  9993
2 57054  43.0038  83.4716 0001053 267.0108  93.0623 15.27579303160814
STARLINK-6237           
1 57055U 23088H   26137.14252484 -.00001660  00000+0 -50775-4 0  9994
2 57055  43.0039  83.8804 0002193 264.9708  95.0893 15.27581791160800
STARLINK-6353           
1 57056U 23088J   26137.19892537  .00001510  00000+0  64390-4 0  9999
2 57056  43.0040  83.4455 0001513 259.0821 100.9861 15.27572606160814
STARLINK-6223           
1 57057U 23088K   26137.20534650  .00000288  00000+0  19974-4 0  9990
2 57057  43.0039  83.4660 0000944 264.6851  95.3893 15.27579060160816
STARLINK-6217           
1 57058U 23088L   26137.12968573  .00000999  00000+0  45809-4 0  9992
2 57058  43.0037  83.7901 0001230 256.2878 103.7837 15.27579547160802
STARLINK-6211           
1 57059U 23088M   26137.19635343  .00000317  00000+0  21063-4 0  9996
2 57059  43.0037  83.4154 0001287 268.0858  91.9846 15.27575984160811
STARLINK-6227           
1 57060U 23088N   26137.18879234  .00000665  00000+0  33713-4 0  9997
2 57060  43.0061  84.2143 0001422 264.1214  95.9475 15.27577403160800
STARLINK-5869           
1 57061U 23088P   26136.94972176  .00004694  00000+0  17985-3 0  9998
2 57061  42.9996  88.4081 0001178 299.3256  60.7477 15.27604847159754
STARLINK-5536           
1 57062U 23088Q   26137.10719885 -.00010773  00000+0 -38211-3 0  9996
2 57062  43.0049  69.7387 0001273 265.3298  94.7408 15.27615396160969
STARLINK-5832           
1 57063U 23088R   26137.15184382 -.00001322  00000+0 -39621-4 0  9997
2 57063  43.0031  83.9385 0000881 257.8815 102.1938 15.26737162160802
STARLINK-5822           
1 57064U 23088S   26137.14638727  .00000199  00000+0  16725-4 0  9993
2 57064  43.0037  83.8984 0000523 223.8186 136.2624 15.27591517159823
STARLINK-5830           
1 57065U 23088T   26137.15759028 -.00000638  00000+0 -14093-4 0  9999
2 57065  43.0024  87.3671 0001034 270.0606  90.0126 15.26739037159780
STARLINK-5827           
1 57066U 23088U   26137.15153231 -.00000232  00000+0  10970-5 0  9994
2 57066  43.0042  83.9391 0000995 266.7942  93.2796 15.27572385159827
STARLINK-5824           
1 57067U 23088V   26136.96821554  .00000020  00000+0  10240-4 0  9996
2 57067  43.0048  85.1350 0001257 259.4017 100.6693 15.27575814160772
STARLINK-5844           
1 57068U 23088W   26137.17031250  .00000098  00000+0  13091-4 0  9999
2 57068  43.0024  87.4918 0000990 260.1027  99.9713 15.27573781160768
STARLINK-5821           
1 57069U 23088X   26136.80982601  .00000637  00000+0  32686-4 0  9994
2 57069  43.0064  71.8313 0001341 274.9461  85.1238 15.27578116160749
STARLINK-5828           
1 57070U 23088Y   26136.98029875  .00000703  00000+0  35041-4 0  9992
2 57070  42.9998  70.5351 0000706 249.5172 110.5604 15.27579582160944
STARLINK-5834           
1 57071U 23088Z   26136.86493144  .00000614  00000+0  31848-4 0  9996
2 57071  43.0054  71.3886 0001494 280.5242  79.5441 15.27580560160750
STARLINK-5843           
1 57072U 23088AA  26137.16668980  .00028800  00000+0  10527-2 0  9999
2 57072  43.0016  69.5872 0000959 269.7822 354.1156 15.27560084  5797
